IRIDIUM 7 [-]           
1 24793U 97020B   23256.92266504  .00000530  00000+0  17976-3 0  9995
2 24793  86.3902  85.9141 0002279  87.7025 272.4432 14.34885918379769
IRIDIUM 5 [-]           
1 24795U 97020D   23256.87026908  .00005398  00000+0  55265-3 0  9993
2 24795  86.3996  17.1562 0127142 264.9641  93.7059 14.84424595389886
IRIDIUM 4 [-]           
1 24796U 97020E   23256.89682981  .00000612  00000+0  20488-3 0  9998
2 24796  86.3898  83.2267 0002154  92.7170 267.4273 14.35791700380276
IRIDIUM 914 [-]         
1 24836U 97030A   23256.83078447  .00000623  00000+0  19344-3 0  9995
2 24836  86.3876  93.7391 0002829 130.0538 230.0909 14.39584567514674
IRIDIUM 16 [-]          
1 24841U 97030F   23256.88691457  .00000575  00000+0  18569-3 0  9992
2 24841  86.4005 114.9891 0003400  49.4685 310.6808 14.37484290374697
IRIDIUM 911 [-]         
1 24842U 97030G   23256.86555476  .00000758  00000+0  20702-3 0  9996
2 24842  86.4431 114.3525 0016494  78.5216 281.7838 14.45991767382218
IRIDIUM 17 [-]          
1 24870U 97034B   23256.95977147  .00000586  00000+0  19296-3 0  9999
2 24870  86.3997 144.6157 0001768  32.1371 327.9933 14.36586468371347
IRIDIUM 920 [-]         
1 24871U 97034C   23256.91988057  .00000596  00000+0  18171-3 0  9990
2 24871  86.3968 125.3759 0013187  45.9852 314.2431 14.40300822374094
